STARLINK-1561
1 26056C 20055AF  21325.15798530  .00000461  00000-0  30875-4 0  3255
2 26056  53.0539 322.5195 0001893  55.6473  67.8749 15.06388657    17
